Satellite: RS-30
Catalog number: 32953
Epoch time:      09050.19190436
Element set:     235
Inclination:      082.5071 deg
RA of node:       329.9938 deg
Eccentricity:    0.0020213
Arg of perigee:   075.2101 deg
Mean anomaly:     285.1227 deg
Mean motion:   12.42999778 rev/day
Decay rate:        1.0e-07 rev/day^2
Epoch rev:            3373
Checksum:              285

/EX




From r.hoad at att.net  Thu Feb 19 19:55:25 2009
From: r.hoad at att.net (Ray Hoad)
Date: Thu, 19 Feb 2009 21:55:25 -0600
Subject: [keps]  orb09050.2l.amsat
Message-ID: <499E29AD.9080706@att.net>

SB KEPS @ AMSAT  $ORB09050.N
2Line Orbital Elements 09050.AMSAT

HR AMSAT ORBITAL ELEMENTS FOR AMATEUR SATELLITES IN NASA FORMAT
FROM WA5QGD FORT WORTH,TX February 19, 2009
Send Subscribe/unsubscribe to KEPS at 
http://www.amsat.org/mailman/listinfo/keps
BID: ORB09050.N

DECODE 2-LINE ELSETS WITH THE FOLLOWING KEY:
1 AAAAAU 00  0  0 BBBBB.BBBBBBBB  .CCCCCCCC  00000-0  00000-0 0  DDDZ
2 AAAAA EEE.EEEE FFF.FFFF GGGGGGG HHH.HHHH III.IIII JJ.JJJJJJJJKKKKKZ
KEY: A-CATALOGNUM B-EPOCHTIME C-DECAY D-ELSETNUM E-INCLINATION F-RAAN
G-ECCENTRICITY H-ARGPERIGEE I-MNANOM J-MNMOTION K-ORBITNUM Z-CHECKSUM

TO ALL RADIO AMATEURS BT

AO-07
1 07530U 74089B   09049.49647477 -.00000027  00000-0  10000-3 0 04071
2 07530 101.4403 078.4796 0012089 140.7184 219.4770 12.53575372567846
AO-10
1 14129U 83058B   09050.24155992 -.00000168  00000-0  10000-3 0  6225
2 14129 025.9943 170.6626 5973312 199.4288 121.5356 02.05868041193190
UO-11
1 14781U 84021B   09049.13226665 -.00000161  00000-0 -14182-4 0 08909
2 14781 098.1240 092.4219 0009297 007.8418 352.2969 14.79693862340221
RS-15
1 23439U 94085A   09049.66522953 -.00000039  00000-0  10000-3 0 01873
2 23439 064.8148 096.4783 0146010 074.6103 287.0898 11.27553116582755
FO-29
1 24278U 96046B   09049.75246804 -.00000076  00000-0 -38229-4 0  9742
2 24278 098.5715 299.5973 0350046 297.3039 059.2861 13.52942113617731
SO-33
1 25509U 98061B   09049.23118486  .00000185  00000-0  26345-4 0 03903
2 25509 031.4340 005.1235 0354171 018.4021 342.9021 14.28240775538817
AO-40
1 26609U 00072B   09046.94460257 -.00000127  00000-0  10000-3 0  1939
2 26609 008.7482 032.7758 7951066 175.9734 201.0405 01.25584130 38109
VO-52
1 28650U 05017B   09049.25163569 -.00000162  00000-0 -13901-4 0 01589
2 28650 097.7562 114.6854 0028332 058.8726 301.5270 14.81552991205035
PO-63
1 29712U 07001D   09050.68815665  .00000466  00000-0  67632-4 0  2490
2 29712 097.8443 109.8322 0013293 300.1164 059.8722 14.80446541114080
AO-16
1 20439U 90005D   09050.45384473  .00000005  00000-0  17045-4 0  5389
2 20439 098.2645 024.3014 0011075 156.3129 203.8572 14.31816236996308
LO-19
1 20442U 90005G   09048.50391374 -.00000015  00000-0  95441-5 0 04595
2 20442 098.2293 030.1591 0012087 159.1827 200.9839 14.32052763996184
AO-27
1 22825U 93061C   09049.48505675 -.00000090  00000-0 -18915-4 0  1801
2 22825 098.4210 006.7377 0007502 253.9944 106.0404 14.29258344802956
IO-26
1 22826U 93061D   09049.42611725  .00000003  00000-0  17720-4 0 08992
2 22826 098.4140 007.4810 0008061 250.3833 109.6469 14.29509664803043
GO-32
1 25397U 98043D   09050.80143875  .00000026  00000-0  29529-4 0  8257
2 25397 098.3392 079.3689 0000645 190.5221 169.5935 14.23155230551431
NO-44
1 26931U 01043C   09050.88688318  .00000111  00000-0  75523-4 0  1028
2 26931 067.0538 006.5387 0005404 259.3833 100.6665 14.29548097385815
SO-50
1 27607U 02058C   09050.47293040  .00000100  00000-0  37416-4 0  8186
2 27607 064.5595 022.6047 0078623 230.9581 128.4528 14.71416328331355
CO-55
1 27844U 03031E   09049.24571092  .00000020  00000-0  29566-4 0 05152
2 27844 098.7161 060.0793 0010401 123.1987 237.0184 14.20622622292376
CO-57
1 27848U 03031J   09050.54513062  .00000017  00000-0  28098-4 0  4620
2 27848 098.7172 060.4246 0010340 124.4891 235.7268 14.20427135292526
AO-51
1 28375U 04025K   09050.51739396  .00000003  00000-0  13231-4 0  3219
2 28375 098.0563 066.9582 0084369 121.6765 239.2690 14.40633400244019
CO-56
1 28941U 06005C   09050.47929941  .00048723  33135-5  24851-3 0  8338
2 28941 098.1275 204.1193 0119055 213.5933 145.7763 15.71786257168686
CP3
1 31128U 07012M   09050.79790202 -.00000048  00000-0  00000 0 0  5601
2 31128 098.0057 109.3264 0101661 289.1053 069.9140 14.52018655 97860
CP4
1 31132U 07012Q   09050.70402302 -.00000002  00000-0  10182-4 0  5380
2 31132 098.0083 112.6423 0084462 279.2452 079.9200 14.55183640 97947
CO-65
1 32785U 08021C   09049.18420443 -.00000030  00000-0  29728-5 0 03030
2 32785 097.9618 114.0551 0016079 059.8139 300.4663 14.81449032043827
NOAA-10
1 16969U 86073A   09050.11212664 -.00000097  00000-0 -21362-4 0  5073
2 16969 098.7049 077.3371 0012332 177.8774 182.2477 14.27379650166660
NOAA-11
1 19531U 88089A   09050.32334044 -.00000187  00000-0 -73960-4 0  5183
2 19531 098.7843 142.0996 0012384 084.1737 276.0856 14.14888309 52859
NOAA-12
1 21263U 91032A   09049.98293494  .00000004  00000-0  20533-4 0 00306
2 21263 098.7733 057.9824 0012987 126.0205 234.2185 14.25566951923554
MET-3/5
1 21655U 91056A   09050.85294102  .00000051  00000-0  10000-3 0  5597
2 21655 082.5525 289.4020 0014273 110.6401 249.6254 13.17018223842186
MET-2/21
1 22782U 93055A   09048.57164630  .00000034  00000-0  17525-4 0 03823
2 22782 082.5449 276.9030 0021847 325.7776 034.1987 13.83633807781067
OKEAN-4
1 23317U 94066A   09049.45812048 -.00000000  00000-0 -30426-5 0 08334
2 23317 082.5364 085.2900 0023444 039.3971 320.8943 14.82674273774774
NOAA-14
1 23455U 94089A   09050.47567392  .00000284  00000-0  17348-3 0  5172
2 23455 098.9184 128.5296 0009870 160.1404 200.0182 14.13759155729296
NOAA-15
1 25338U 98030A   09050.49231890  .00000102  00000-0  62409-4 0  8235
2 25338 098.5775 042.3280 0011459 044.2459 315.9638 14.24746728560013
RESURS
1 25394U 98043A   09049.63843955 -.00000031  00000-0  42326-5 0 01586
2 25394 098.3547 087.9370 0001121 160.6172 199.5048 14.24179873551523
FENGYUN1
1 25730U 99025A   09049.95916732  .00000275  00000-0  18649-3 0 07236
2 25730 098.7459 023.7092 0021878 190.4606 169.6110 14.07926219503683
OKEAN-0
1 25860U 99039A   09050.83389138  .00000031  00000-0  12009-4 0  6041
2 25860 097.7753 036.7504 0000939 105.2481 254.8828 14.73559209515865
NOAA-16
1 26536U 00055A   09050.49417230 -.00000061  00000-0 -78144-5 0  2986
2 26536 099.1760 051.3233 0009780 250.8777 109.1356 14.12509685433683
NOAA-17
1 27453U 02032A   09049.53895677  .00000138  00000-0  78450-4 0 03040
2 27453 098.5004 112.6165 0012780 109.4618 250.7948 14.24042264345868
NOAA-18
1 28654U 05018A   09050.42638866 -.00000189  00000-0 -80326-4 0  7908
2 28654 098.8958 354.6479 0014219 339.5682 020.4912 14.11233418193341
HUBBLE
1 20580U 90037B   09050.58826032  .00000363  00000-0  15254-4 0  3304
2 20580 028.4688 149.5183 0003872 134.1879 225.9029 15.00456727832174
PO-34
1 25520U 98064B   09050.84913617  .00000388  00000-0  92898-5 0  1884
2 25520 028.4617 320.5826 0005280 106.2068 253.9111 15.17298402570810
ISS
1 25544U 98067A   09049.90904766  .00008462  00000-0  70717-4 0 03016
2 25544 051.6395 192.6700 0009226 040.3884 099.9675 15.70973343587346
CO-58
1 28895U 05043F   09050.37177532  .00000025  00000-0  14884-4 0  2363
2 28895 098.0750 304.1925 0017785 000.1818 359.9362 14.59742687176546
FALCON
1 30776U 07006E   09049.54254855  .00000369  00000-0  29804-4 0 05177
2 30776 035.4335 099.2079 0001785 327.4459 032.6147 15.03171400107237
MAST
1 31126U 07012K   09048.45801306 -.00000046  00000-0  42567-6 0 05314
2 31126 098.0074 108.6567 0093602 291.6848 067.4411 14.53477405097643
CAPE1
1 31130U 07012P   09049.82526855 -.00000138  00000-0 -20749-4 0 05335
2 31130 098.0064 108.4105 0101700 292.2080 066.8314 14.52033007097513
COMPASS
1 32787U 08021E   09050.85840237 -.00000055  00000-0 -19891-6 0  2842
2 32787 097.9575 115.6024 0017009 056.3699 303.9115 14.81548717 44078
AAUSAT2
1 32788U 08021F   09050.83588516  .00000049  00000-0  13068-4 0  2850
2 32788 097.9582 115.6207 0016678 058.0441 302.2331 14.81668662 44079
DO-64
1 32789U 08021G   09050.71985478  .00000113  00000-0  21126-4 0  2953
2 32789 097.9622 115.6006 0016637 055.9080 304.3699 14.81617181 44050
CO-66
1 32791U 08021J   09049.26704601  .00000088  00000-0  18105-4 0 02775
2 32791 097.9606 114.0517 0017111 058.8153 301.4735 14.81388023043807
RS-30
1 32953U 08025A   09050.19190436  .00000010  00000-0  00000 0 0  2357
2 32953 082.5071 329.9938 0020213 075.2101 285.1227 12.42999778 33735
/EX





From r.hoad at att.net  Thu Feb 19 20:29:10 2009
From: r.hoad at att.net (Ray Hoad)
Date: Thu, 19 Feb 2009 22:29:10 -0600
Subject: [keps]  GOSAT Keplerian Data Update
Message-ID: <499E3196.9020003@att.net>

Here is an update on the GOSAT objects now in orbit.

Does anyone have a list of what each object is now believed to be?

Listen for KAGAYAKI Satellite. Object D is thought to be KAGAYAKI

Per AMSAT News Service Bulletin 046.01 from AMSAT HQ SILVER SPRING, MD.
dated February 15, 2009:

"The KAGAYAKI satellite has not been heard since it was launched with
Japan's January 23 GOSAT satellite. KAGAYAKI was to transmit morse
code on FM after separation from the H-2A booster. If operational KAGAYAKI
should be tranmitting morse code on FM or 9600bps packet at 437.375MHz.
The command team thinks the satellite's output power may very low
because the antenna or solar panel has not extended properly. Ground
controllers have been searching for a downlink signal using a spectrum
analyzer."

OBJECT A
1 33492U 09002A   09050.61092329 -.00055461  00000-0 -98562-2 0   758
2 33492 098.0483 161.8148 0001354 112.8012 247.1331 14.67535032  4025
OBJECT B
1 33493U 09002B   09050.84956075  .00000167  00000-0  28828-4 0  1135
2 33493 098.0457 162.6340 0018923 261.0352 098.8713 14.80613862  4101
OBJECT C
1 33494U 09002C   09050.86902654  .00000006  00000-0  92397-5 0   844
2 33494 098.0324 162.0748 0002673 272.9158 087.1741 14.68703689  4072
OBJECT D
1 33495U 09002D   09050.84221084 -.00000012  00000-0  61454-5 0   820
2 33495 098.0270 162.0854 0007743 331.8785 028.1998 14.70127716  4045
OBJECT E
1 33496U 09002E   09050.85549108 -.00000008  00000-0  69222-5 0   828
2 33496 098.0272 162.0711 0005485 302.9636 057.1033 14.69422588  4040
OBJECT F
1 33497U 09002F   09050.82236895  .00000055  00000-0  18015-4 0   859
2 33497 098.0303 161.9707 0002742 132.4470 227.6963 14.67563738  4030
OBJECT G
1 33498U 09002G   09050.68478739  .00000149  00000-0  32152-4 0   840
2 33498 098.0278 161.9950 0012567 345.3844 014.7000 14.71272331  4036
OBJECT H
1 33499U 09002H   09050.83226725  .00000134  00000-0  30092-4 0   861
2 33499 098.0294 162.1147 0009690 343.1625 016.9254 14.70660727  4058



From r.hoad at att.net  Thu Feb 26 20:24:54 2009
From: r.hoad at att.net (Ray Hoad)
Date: Thu, 26 Feb 2009 22:24:54 -0600
Subject: [keps]  orb09057.amsat
Message-ID: <49A76B16.8070106@att.net>

SB KEPS @ AMSAT  $ORB09057.O
Orbital Elements  09057.OSCAR

HR AMSAT ORBITAL ELEMENTS FOR OSCAR SATELLITES
FROM WA5QGD FORT WORTH,TX February 26, 2009
Send Subscribe/unsubscribe to KEPS at 
http://www.amsat.org/mailman/listinfo/keps
BID: ORB09057.O
TO ALL RADIO AMATEURS BT

